CCSDS_OMM_VERS = 2.0
CREATION_DATE  = 
ORIGINATOR     = 

OBJECT_NAME    = SILVERSAT
OBJECT_ID      = 1998-067XV
CENTER_NAME    = EARTH
REF_FRAME      = TEME
TIME_SYSTEM    = UTC
MEAN_ELEMENT_THEORY = SGP/SGP4

EPOCH          = 2026-02-01T20:25:51.589920
MEAN_MOTION    = 15.61280304
ECCENTRICITY   = .00030872
INCLINATION    = 51.6270
RA_OF_ASC_NODE = 246.8457
ARG_OF_PERICENTER = 178.6418
MEAN_ANOMALY   = 181.4585

EPHEMERIS_TYPE = 0
CLASSIFICATION_TYPE = U
NORAD_CAT_ID   = 66909
ELEMENT_SET_NO = 999
REV_AT_EPOCH   = 957
BSTAR          = .10332168E-2
MEAN_MOTION_DOT = .89949E-3
MEAN_MOTION_DDOT = 0

CCSDS_OMM_VERS = 2.0
CREATION_DATE  = 
ORIGINATOR     = 

OBJECT_NAME    = 1998-067XW
OBJECT_ID      = 1998-067XW
CENTER_NAME    = EARTH
REF_FRAME      = TEME
TIME_SYSTEM    = UTC
MEAN_ELEMENT_THEORY = SGP/SGP4

EPOCH          = 2026-02-01T20:40:02.026848
MEAN_MOTION    = 15.60180759
ECCENTRICITY   = .00013548
INCLINATION    = 51.6253
RA_OF_ASC_NODE = 246.9073
ARG_OF_PERICENTER = 171.1819
MEAN_ANOMALY   = 188.9198

EPHEMERIS_TYPE = 0
CLASSIFICATION_TYPE = U
NORAD_CAT_ID   = 66910
ELEMENT_SET_NO = 999
REV_AT_EPOCH   = 957
BSTAR          = .91674971E-3
MEAN_MOTION_DOT = .76297E-3
MEAN_MOTION_DDOT = 0

CCSDS_OMM_VERS = 2.0
CREATION_DATE  = 
ORIGINATOR     = 

OBJECT_NAME    = 1998-067XX
OBJECT_ID      = 1998-067XX
CENTER_NAME    = EARTH
REF_FRAME      = TEME
TIME_SYSTEM    = UTC
MEAN_ELEMENT_THEORY = SGP/SGP4

EPOCH          = 2026-02-01T19:50:04.993152
MEAN_MOTION    = 15.62341323
ECCENTRICITY   = .0002344
INCLINATION    = 51.6244
RA_OF_ASC_NODE = 246.6749
ARG_OF_PERICENTER = 200.5541
MEAN_ANOMALY   = 159.5359

EPHEMERIS_TYPE = 0
CLASSIFICATION_TYPE = U
NORAD_CAT_ID   = 66911
ELEMENT_SET_NO = 999
REV_AT_EPOCH   = 956
BSTAR          = .10278837E-2
MEAN_MOTION_DOT = .93286E-3
MEAN_MOTION_DDOT = 0

CCSDS_OMM_VERS = 2.0
CREATION_DATE  = 
ORIGINATOR     = 

OBJECT_NAME    = 1998-067XY
OBJECT_ID      = 1998-067XY
CENTER_NAME    = EARTH
REF_FRAME      = TEME
TIME_SYSTEM    = UTC
MEAN_ELEMENT_THEORY = SGP/SGP4

EPOCH          = 2026-02-01T18:48:35.465184
MEAN_MOTION    = 15.57660356
ECCENTRICITY   = .00020818
INCLINATION    = 51.6275
RA_OF_ASC_NODE = 247.8962
ARG_OF_PERICENTER = 131.8763
MEAN_ANOMALY   = 228.2407

EPHEMERIS_TYPE = 0
CLASSIFICATION_TYPE = U
NORAD_CAT_ID   = 66912
ELEMENT_SET_NO = 999
REV_AT_EPOCH   = 954
BSTAR          = .72044626E-3
MEAN_MOTION_DOT = .54219E-3
MEAN_MOTION_DDOT = 0

