SILVERSAT               
1 66909U 98067XV  26032.85129155  .00089949  00000+0  10332-2 0  9998
2 66909  51.6270 246.8457 0003087 178.6418 181.4585 15.61280304  9575
1998-067XW              
1 66910U 98067XW  26032.86113457  .00076297  00000+0  91675-3 0  9991
2 66910  51.6253 246.9073 0001354 171.1819 188.9198 15.60180759  9575
1998-067XX              
1 66911U 98067XX  26032.82644668  .00093286  00000+0  10279-2 0  9998
2 66911  51.6244 246.6749 0002344 200.5541 159.5359 15.62341323  9562
1998-067XY              
1 66912U 98067XY  26032.78374381  .00054219  00000+0  72045-3 0  9999
2 66912  51.6275 247.8962 0002081 131.8763 228.2407 15.57660356  9547
